start=new Date('2023-05-17T00:00:00.000Z').valueOf();
sats=[{"NORAD_CAT_ID":"55653","SEMIMAJOR_AXIS":"6737.235","PERIAPSIS":"356.714","TLE_LINE1":"1 55653U 23021AB  23136.46270879  .00003646  00000-0  32071-4 0  9996","BSTAR":"0.00003207100000","INCLINATION":"70.0011","GP_ID":"231969090","EPOCH":"2023-05-16T11:06:18.039456","FILE":"3909472","OBJECT_ID":"2023-021AB","APOAPSIS":"361.486","MEAN_MOTION":"15.69929692","REV_AT_EPOCH":"1461","SITE":"AFWTR","OBJECT_TYPE":"PAYLOAD","RA_OF_ASC_NODE":"263.3820","MEAN_MOTION_DOT":"0.00003646","EPHEMERIS_TYPE":"0","ECCENTRICITY":"0.00035420","LAUNCH_DATE":"2023-02-17","CENTER_NAME":"EARTH","OBJECT_NAME":"STARLINK-5067","MEAN_MOTION_DDOT":"0.0000000000000","COUNTRY_CODE":"US","TLE_LINE2":"2 55653  70.0011 263.3820 0003542 273.9173  86.1618 15.69929692 14615","MEAN_ANOMALY":"86.1618","ARG_OF_PERICENTER":"273.9173","RCS_SIZE":"LARGE","DECAY_DATE":null,"CLASSIFICATION_TYPE":"U","PERIOD":"91.724","ELEMENT_SET_NO":"999","TIME_SYSTEM":"UTC","MEAN_ELEMENT_THEORY":"SGP4","REF_FRAME":"TEME"},{"ECCENTRICITY":"0.00034350","CENTER_NAME":"EARTH","LAUNCH_DATE":"2023-02-17","EPHEMERIS_TYPE":"0","SITE":"AFWTR","REV_AT_EPOCH":"1461","MEAN_MOTION_DOT":"0.00001429","RA_OF_ASC_NODE":"263.3868","OBJECT_TYPE":"PAYLOAD","OBJECT_ID":"2023-021AC","APOAPSIS":"361.417","FILE":"3909472","EPOCH":"2023-05-16T11:08:43.758240","MEAN_MOTION":"15.69928619","GP_ID":"231967350","TLE_LINE1":"1 55654U 23021AC  23136.46439535  .00001429  00000-0  13647-4 0  9998","PERIAPSIS":"356.789","INCLINATION":"70.0009","BSTAR":"0.00001364700000","NORAD_CAT_ID":"55654","SEMIMAJOR_AXIS":"6737.238","TIME_SYSTEM":"UTC","REF_FRAME":"TEME","MEAN_ELEMENT_THEORY":"SGP4","PERIOD":"91.724","ELEMENT_SET_NO":"999","DECAY_DATE":null,"RCS_SIZE":"LARGE","CLASSIFICATION_TYPE":"U","ARG_OF_PERICENTER":"264.6535","TLE_LINE2":"2 55654  70.0009 263.3868 0003435 264.6535  95.4269 15.69928619 14618","MEAN_ANOMALY":"95.4269","COUNTRY_CODE":"US","OBJECT_NAME":"STARLINK-5070","MEAN_MOTION_DDOT":"0.0000000000000"},{"MEAN_ELEMENT_THEORY":"SGP4","REF_FRAME":"TEME","TIME_SYSTEM":"UTC","ELEMENT_SET_NO":"999","PERIOD":"91.724","CLASSIFICATION_TYPE":"U","RCS_SIZE":"LARGE","DECAY_DATE":null,"ARG_OF_PERICENTER":"266.3356","MEAN_ANOMALY":"93.7449","TLE_LINE2":"2 55655  70.0011 263.3776 0003417 266.3356  93.7449 15.69927478 14613","COUNTRY_CODE":"US","MEAN_MOTION_DDOT":"0.0000000000000","OBJECT_NAME":"STARLINK-5267","CENTER_NAME":"EARTH","LAUNCH_DATE":"2023-02-17","ECCENTRICITY":"0.00034170","EPHEMERIS_TYPE":"0","OBJECT_TYPE":"PAYLOAD","RA_OF_ASC_NODE":"263.3776","MEAN_MOTION_DOT":"0.00000651","REV_AT_EPOCH":"1461","SITE":"AFWTR","MEAN_MOTION":"15.69927478","FILE":"3909472","EPOCH":"2023-05-16T11:05:14.366976","OBJECT_ID":"2023-021AD","APOAPSIS":"361.409","GP_ID":"231967600","BSTAR":"0.00000718070000","INCLINATION":"70.0011","TLE_LINE1":"1 55655U 23021AD  23136.46197184  .00000651  00000-0  71807-5 0  9999","PERIAPSIS":"356.804","SEMIMAJOR_AXIS":"6737.241","NORAD_CAT_ID":"55655"},{"REF_FRAME":"TEME","MEAN_ELEMENT_THEORY":"SGP4","TIME_SYSTEM":"UTC","CLASSIFICATION_TYPE":"U","DECAY_DATE":null,"RCS_SIZE":"LARGE","PERIOD":"91.724","ELEMENT_SET_NO":"999","MEAN_ANOMALY":"98.3916","TLE_LINE2":"2 55656  70.0022 263.3826 0003103 261.6928  98.3916 15.69927144 14617","ARG_OF_PERICENTER":"261.6928","MEAN_MOTION_DDOT":"0.0000000000000","OBJECT_NAME":"STARLINK-5326","COUNTRY_CODE":"US","EPHEMERIS_TYPE":"0","LAUNCH_DATE":"2023-02-17","CENTER_NAME":"EARTH","ECCENTRICITY":"0.00031030","MEAN_MOTION":"15.69927144","OBJECT_ID":"2023-021AE","APOAPSIS":"361.198","FILE":"3909472","EPOCH":"2023-05-16T11:05:59.940384","MEAN_MOTION_DOT":"0.00001514","RA_OF_ASC_NODE":"263.3826","OBJECT_TYPE":"PAYLOAD","SITE":"AFWTR","REV_AT_EPOCH":"1461","GP_ID":"231968346","SEMIMAJOR_AXIS":"6737.242","NORAD_CAT_ID":"55656","INCLINATION":"70.0022","BSTAR":"0.00001435800000","TLE_LINE1":"1 55656U 23021AE  23136.46249931  .00001514  00000-0  14358-4 0  9994","PERIAPSIS":"357.017"},{"NORAD_CAT_ID":"55657","SEMIMAJOR_AXIS":"6737.243","TLE_LINE1":"1 55657U 23021AF  23136.46218370  .00000082  00000-0  24535-5 0  9996","PERIAPSIS":"356.621","BSTAR":"0.00000245350000","INCLINATION":"69.9992","GP_ID":"231968591","EPOCH":"2023-05-16T11:05:32.671680","FILE":"3909472","OBJECT_ID":"2023-021AF","APOAPSIS":"361.595","MEAN_MOTION":"15.69926935","REV_AT_EPOCH":"1461","SITE":"AFWTR","RA_OF_ASC_NODE":"263.3798","OBJECT_TYPE":"PAYLOAD","MEAN_MOTION_DOT":"0.00000082","EPHEMERIS_TYPE":"0","ECCENTRICITY":"0.00036910","LAUNCH_DATE":"2023-02-17","CENTER_NAME":"EARTH","OBJECT_NAME":"STARLINK-5328","MEAN_MOTION_DDOT":"0.0000000000000","COUNTRY_CODE":"US","TLE_LINE2":"2 55657  69.9992 263.3798 0003691 266.5579  93.5195 15.69926935 14610","MEAN_ANOMALY":"93.5195","ARG_OF_PERICENTER":"266.5579","RCS_SIZE":"LARGE","DECAY_DATE":null,"CLASSIFICATION_TYPE":"U","PERIOD":"91.724","ELEMENT_SET_NO":"999","TIME_SYSTEM":"UTC","MEAN_ELEMENT_THEORY":"SGP4","REF_FRAME":"TEME"},{"TIME_SYSTEM":"UTC","REF_FRAME":"TEME","MEAN_ELEMENT_THEORY":"SGP4","PERIOD":"91.724","ELEMENT_SET_NO":"999","DECAY_DATE":null,"RCS_SIZE":"LARGE","CLASSIFICATION_TYPE":"U","ARG_OF_PERICENTER":"256.6566","TLE_LINE2":"2 55658  70.0000 263.3835 0003261 256.6566 103.4267 15.69928313 14618","MEAN_ANOMALY":"103.4267","COUNTRY_CODE":"US","OBJECT_NAME":"STARLINK-5307","MEAN_MOTION_DDOT":"0.0000000000000","ECCENTRICITY":"0.00032610","CENTER_NAME":"EARTH","LAUNCH_DATE":"2023-02-17","EPHEMERIS_TYPE":"0","SITE":"AFWTR","REV_AT_EPOCH":"1461","MEAN_MOTION_DOT":"0.00001003","OBJECT_TYPE":"PAYLOAD","RA_OF_ASC_NODE":"263.3835","OBJECT_ID":"2023-021AG","APOAPSIS":"361.301","EPOCH":"2023-05-16T11:06:36.266400","FILE":"3909472","MEAN_MOTION":"15.69928313","GP_ID":"231967850","PERIAPSIS":"356.907","TLE_LINE1":"1 55658U 23021AG  23136.46291975  .00001003  00000-0  10104-4 0  9999","INCLINATION":"70.0000","BSTAR":"0.00001010400000","NORAD_CAT_ID":"55658","SEMIMAJOR_AXIS":"6737.239"},{"ELEMENT_SET_NO":"999","PERIOD":"91.724","CLASSIFICATION_TYPE":"U","DECAY_DATE":null,"RCS_SIZE":"LARGE","REF_FRAME":"TEME","MEAN_ELEMENT_THEORY":"SGP4","TIME_SYSTEM":"UTC","COUNTRY_CODE":"US","MEAN_MOTION_DDOT":"0.0000000000000","OBJECT_NAME":"STARLINK-5477","ARG_OF_PERICENTER":"250.7453","MEAN_ANOMALY":"109.3443","TLE_LINE2":"2 55659  70.0025 263.3794 0002771 250.7453 109.3443 15.69927915 14613","MEAN_MOTION_DOT":"0.00001276","RA_OF_ASC_NODE":"263.3794","OBJECT_TYPE":"PAYLOAD","SITE":"AFWTR","REV_AT_EPOCH":"1461","MEAN_MOTION":"15.69927915","APOAPSIS":"360.972","OBJECT_ID":"2023-021AH","EPOCH":"2023-05-16T11:05:23.384544","FILE":"3909472","LAUNCH_DATE":"2023-02-17","CENTER_NAME":"EARTH","ECCENTRICITY":"0.00027710","EPHEMERIS_TYPE":"0","INCLINATION":"70.0025","BSTAR":"0.00001237100000","TLE_LINE1":"1 55659U 23021AH  23136.46207621  .00001276  00000-0  12371-4 0  9995","PERIAPSIS":"357.238","SEMIMAJOR_AXIS":"6737.240","NORAD_CAT_ID":"55659","GP_ID":"231968100"},{"GP_ID":"231968846","INCLINATION":"69.9988","BSTAR":"0.00000221810000","PERIAPSIS":"356.613","TLE_LINE1":"1 55660U 23021AJ  23136.46239433  .00000054  00000-0  22181-5 0  9997","SEMIMAJOR_AXIS":"6737.244","NORAD_CAT_ID":"55660","LAUNCH_DATE":"2023-02-17","CENTER_NAME":"EARTH","ECCENTRICITY":"0.00037040","EPHEMERIS_TYPE":"0","MEAN_MOTION_DOT":"0.00000054","OBJECT_TYPE":"PAYLOAD","RA_OF_ASC_NODE":"263.3793","SITE":"AFWTR","REV_AT_EPOCH":"1461","MEAN_MOTION":"15.69926630","OBJECT_ID":"2023-021AJ","APOAPSIS":"361.604","EPOCH":"2023-05-16T11:05:50.870112","FILE":"3909472","ARG_OF_PERICENTER":"267.9633","MEAN_ANOMALY":"92.1139","TLE_LINE2":"2 55660  69.9988 263.3793 0003704 267.9633  92.1139 15.69926630 14610","COUNTRY_CODE":"US","MEAN_MOTION_DDOT":"0.0000000000000","OBJECT_NAME":"STARLINK-5467","REF_FRAME":"TEME","MEAN_ELEMENT_THEORY":"SGP4","TIME_SYSTEM":"UTC","PERIOD":"91.724","ELEMENT_SET_NO":"999","CLASSIFICATION_TYPE":"U","DECAY_DATE":null,"RCS_SIZE":"LARGE"},{"ARG_OF_PERICENTER":"267.8533","TLE_LINE2":"2 55661  69.9996 263.3784 0003340 267.8533  92.2280 15.69926940 14616","MEAN_ANOMALY":"92.2280","COUNTRY_CODE":"US","OBJECT_NAME":"STARLINK-5475","MEAN_MOTION_DDOT":"0.0000000000000","TIME_SYSTEM":"UTC","REF_FRAME":"TEME","MEAN_ELEMENT_THEORY":"SGP4","PERIOD":"91.724","ELEMENT_SET_NO":"999","DECAY_DATE":null,"RCS_SIZE":"LARGE","CLASSIFICATION_TYPE":"U","GP_ID":"231969091","PERIAPSIS":"356.858","TLE_LINE1":"1 55661U 23021AK  23136.46176471 -.00000490  00000-0 -23036-5 0  9996","INCLINATION":"69.9996","BSTAR":"-0.00000230360000","NORAD_CAT_ID":"55661","SEMIMAJOR_AXIS":"6737.243","ECCENTRICITY":"0.00033400","LAUNCH_DATE":"2023-02-17","CENTER_NAME":"EARTH","EPHEMERIS_TYPE":"0","SITE":"AFWTR","REV_AT_EPOCH":"1461","MEAN_MOTION_DOT":"-0.00000490","RA_OF_ASC_NODE":"263.3784","OBJECT_TYPE":"PAYLOAD","OBJECT_ID":"2023-021AK","APOAPSIS":"361.358","FILE":"3909472","EPOCH":"2023-05-16T11:04:56.470944","MEAN_MOTION":"15.69926940"},{"COUNTRY_CODE":"US","OBJECT_NAME":"STARLINK-5479","MEAN_MOTION_DDOT":"0.0000000000000","ARG_OF_PERICENTER":"267.5024","TLE_LINE2":"2 55662  69.9994 263.3793 0003621 267.5024  92.5757 15.69928984 14611","MEAN_ANOMALY":"92.5757","PERIOD":"91.724","ELEMENT_SET_NO":"999","DECAY_DATE":null,"RCS_SIZE":"LARGE","CLASSIFICATION_TYPE":"U","TIME_SYSTEM":"UTC","REF_FRAME":"TEME","MEAN_ELEMENT_THEORY":"SGP4","PERIAPSIS":"356.663","TLE_LINE1":"1 55662U 23021AL  23136.46228907 -.00000254  00000-0 -34557-6 0  9998","INCLINATION":"69.9994","BSTAR":"-0.00000034557000","NORAD_CAT_ID":"55662","SEMIMAJOR_AXIS":"6737.237","GP_ID":"231967351","SITE":"AFWTR","REV_AT_EPOCH":"1461","MEAN_MOTION_DOT":"-0.00000254","OBJECT_TYPE":"PAYLOAD","RA_OF_ASC_NODE":"263.3793","APOAPSIS":"361.542","OBJECT_ID":"2023-021AL","EPOCH":"2023-05-16T11:05:41.775648","FILE":"3909472","MEAN_MOTION":"15.69928984","ECCENTRICITY":"0.00036210","CENTER_NAME":"EARTH","LAUNCH_DATE":"2023-02-17","EPHEMERIS_TYPE":"0"}];
